[Satellite]
VERSION=1.1
NAME=IRIDIUM 146
NICKNAME=IRIDIUM 146
TLE1=1 43254U 18030F   22341.87457069  .00000284  00000+0  94371-4 0  9999
TLE2=2 43254  86.3961 108.4660 0002321  98.4755 261.6703 14.34221512245623
STATUS=0
